ZACUBE-1
1 39417U 13066B   15168.80660432  .00001805  00000-0  23928-3 0  9991
2 39417 097.7300 231.3006 0061725 133.7144 226.9205 14.79722776 84720
TRITON-1
1 39427U 13066M   15169.09676463  .00001312  00000-0  22138-3 0  9990
2 39427 097.7152 219.7951 0116357 163.5683 196.9345 14.66648027 83997
DELFIN3XT
1 39428U 13066N   15169.10242816  .00002227  00000-0  37548-3 0  9991
2 39428 097.7148 218.1051 0124903 168.4414 191.9706 14.65386229 83874
GOMX-1
1 39430U 13066Q   15169.85804182  .00001275  00000-0  24459-3 0  9995
2 39430 097.7102 212.8518 0153470 183.9899 176.0070 14.58062145 83627
MO-76
1 39436U 13066W   15169.19237386  .00023396  00000-0  15551-2 0  9994
2 39436 097.7454 245.3482 0023791 102.7536 257.6352 15.06947391 85645
LO-74
1 39440U 13066AA  15169.15235111  .00001626  00000-0  23839-3 0  9990
2 39440 097.7245 226.9616 0083126 143.9547 216.7307 14.74537339 84476
PUCPSAT-1
1 39442U 13066AC  15169.96821669  .00001925  00000-0  21026-3 0  9998
2 39442 097.7393 239.9485 0034593 116.5092 243.9679 14.88612321 84132
SPROUT
1 39770U 14029E   15169.86827328  .00000965  00000-0  12285-3 0  9999
2 39770 097.8706 266.6622 0009778 187.6963 172.4050 14.83819330 57883
POPSAT-HIP1
1 40028U 14033U   15169.86940108  .00002059  00000-0  23557-3 0  9994
2 40028 097.9548 070.2139 0014311 170.3304 189.8176 14.87030199 54032
EO-80
1 40032U 14033Y   15169.93280949  .00001340  00000-0  15679-3 0  9995
2 40032 097.9523 069.9542 0012479 165.1252 195.0333 14.86711667 54040
VELOX-1
1 40057U 14034E   15169.82881699  .00002181  00000-0  32550-3 0  9991
2 40057 098.2153 247.9575 0010231 228.3371 131.6935 14.75849072 52123
DAURIA DX 1
1 40071U 14037C   15169.88490154  .00000988  00000-0  13688-3 0  9992
2 40071 098.3567 241.3692 0007508 228.9157 131.1380 14.80401666 51046
UKUBE-1
1 40074U 14037F   15169.85166954  .00002264  00000-0  29119-3 0  9995
2 40074 098.3584 242.1202 0003678 230.2229 129.8639 14.82209661 51082
HODOYOSHI-1
1 40299U 14070B   15169.86101351  .00004786  00000-0  22888-3 0  9999
2 40299 097.4562 251.3528 0014517 123.7044 329.8396 15.19376240 34076
CHUBUSAT-1
1 40300U 14070C   15169.87949391  .00005638  00000-0  28129-3 0  9998
2 40300 097.4528 250.6551 0023737 126.0910 325.9112 15.17669539 34034
QSAT-EOS
1 40301U 14070D   15169.85574084  .00010130  00000-0  50721-3 0  9996
2 40301 097.4489 249.9865 0033592 127.9093 325.9931 15.17081759 33997
TSUBAME
1 40302U 14070E   15169.85563743  .00005715  00000-0  31987-3 0  9993
2 40302 097.4469 248.8620 0044543 130.9866 322.6867 15.12975474 33929
FIREBIRD FU3
1 40377U 15003B   15169.57036675  .00005855  00000-0  29482-3 0  9992
2 40377 099.1175 203.2977 0156934 248.8331 109.6061 15.07568777 20752
FIREBIRD FU4
1 40378U 15003C   15169.96644045  .00005175  00000-0  26096-3 0  9995
2 40378 099.1176 203.7732 0157079 247.4707 110.9826 15.07591354 20819
GRIFEX
1 40379U 15003D   15169.93768842  .00003034  00000-0  15818-3 0  9997
2 40379 099.1183 203.6568 0157997 248.8473 109.5803 15.06890501 20801
LAMBDA-SAT
1 40458U 98067GB  15136.30676273  .20783109  12527-4  14817-2 0  9995
2 40458 051.6075 233.7697 0010355 318.5347 043.1720 16.39926603 21161
NO-84
1 40652U          15168.43283940  .00020368  00000-0  53228-3 0 00422
2 40652 054.9963 219.5544 0244855 250.7095 106.7205 15.13706510004218
NO-83
1 40661U          15168.43520714  .00013874  00000-0  36851-3 0 00433
2 40661 055.0080 219.6231 0245886 250.5659 106.8558 15.13406390004218
